GEOSCAN 3 (RS92S3)      
1 64893U 25155T   26187.87066834  .00014810  00000+0  42266-3 0  9990
2 64893  97.4548 157.9864 0008545 108.6643 251.5529 15.36102030 83875
INNOSAT 3 (RS92S0)      
1 64894U 25155U   26187.81344968  .00031622  00000+0  66225-3 0  9993
2 64894  97.4493 159.7995 0008295 109.1422 251.0726 15.45343439 83990
KNACKSAT-2              
1 67683U 98067XZ  26187.43025761  .00050889  00000+0  57855-3 0  9994
2 67683  51.6265 197.5608 0008259 296.8985  63.1164 15.61755488 23280
