OBJECT_NAME,OBJECT_ID,EPOCH,MEAN_MOTION,ECCENTRICITY,INCLINATION,RA_OF_ASC_NODE,ARG_OF_PERICENTER,MEAN_ANOMALY,EPHEMERIS_TYPE,CLASSIFICATION_TYPE,NORAD_CAT_ID,ELEMENT_SET_NO,REV_AT_EPOCH,BSTAR,MEAN_MOTION_DOT,MEAN_MOTION_DDOT
GEOSCAN 3 (RS92S3),2025-155T,2026-07-06T20:53:45.744576,15.36102030,.0008545,97.4548,157.9864,108.6643,251.5529,0,U,64893,999,8387,.42266E-3,.1481E-3,0
INNOSAT 3 (RS92S0),2025-155U,2026-07-06T19:31:22.052352,15.45343439,.0008295,97.4493,159.7995,109.1422,251.0726,0,U,64894,999,8399,.66225E-3,.31622E-3,0
KNACKSAT-2,1998-067XZ,2026-07-06T10:19:34.257504,15.61755488,.00082597,51.6265,197.5608,296.8985,63.1164,0,U,67683,999,2328,.57854596E-3,.50889E-3,0
